[{"OBJECT_NAME":"GAOFEN-5 01","OBJECT_ID":"2018-043A","EPOCH":"2026-03-09T22:22:27.309792","MEAN_MOTION":14.60523795,"ECCENTRICITY":0.00026321,"INCLINATION":98.4468,"RA_OF_ASC_NODE":38.4968,"ARG_OF_PERICENTER":51.5893,"MEAN_ANOMALY":308.5542,"EPHEMERIS_TYPE":0,"CLASSIFICATION_TYPE":"U","NORAD_CAT_ID":43461,"ELEMENT_SET_NO":999,"REV_AT_EPOCH":41720,"BSTAR":0.00013017918,"MEAN_MOTION_DOT":5.83e-6,"MEAN_MOTION_DDOT":0},{"OBJECT_NAME":"FENGYUN 1C DEB","OBJECT_ID":"1999-025BLM","EPOCH":"2026-03-08T05:01:42.980736","MEAN_MOTION":14.80168873,"ECCENTRICITY":0.01365523,"INCLINATION":98.865,"RA_OF_ASC_NODE":239.8189,"ARG_OF_PERICENTER":197.7839,"MEAN_ANOMALY":161.8566,"EPHEMERIS_TYPE":0,"CLASSIFICATION_TYPE":"U","NORAD_CAT_ID":31231,"ELEMENT_SET_NO":999,"REV_AT_EPOCH":64283,"BSTAR":0.0066268112,"MEAN_MOTION_DOT":0.00059401,"MEAN_MOTION_DDOT":0}]
